[{"OBJECT_NAME":"STARLINK-32713","OBJECT_ID":"2025-003A","EPOCH":"2026-03-09T23:16:29.743680","MEAN_MOTION":15.27598321,"ECCENTRICITY":0.00011386,"INCLINATION":42.998,"RA_OF_ASC_NODE":287.4585,"ARG_OF_PERICENTER":243.305,"MEAN_ANOMALY":116.7685,"EPHEMERIS_TYPE":0,"CLASSIFICATION_TYPE":"U","NORAD_CAT_ID":62487,"ELEMENT_SET_NO":999,"REV_AT_EPOCH":6669,"BSTAR":0.00084763218,"MEAN_MOTION_DOT":0.00023149,"MEAN_MOTION_DDOT":0},{"OBJECT_NAME":"OBJECT A","OBJECT_ID":"2025-234A","EPOCH":"2026-03-09T23:03:34.210368","MEAN_MOTION":15.32505956,"ECCENTRICITY":0.00130678,"INCLINATION":97.4388,"RA_OF_ASC_NODE":139.352,"ARG_OF_PERICENTER":148.634,"MEAN_ANOMALY":211.5684,"EPHEMERIS_TYPE":0,"CLASSIFICATION_TYPE":"U","NORAD_CAT_ID":66053,"ELEMENT_SET_NO":999,"REV_AT_EPOCH":2164,"BSTAR":0.0014840662,"MEAN_MOTION_DOT":0.00046856,"MEAN_MOTION_DDOT":0}]
